{
    "links": {
        "self": "http://www.neowsapp.com/rest/v1/neo/3561032?api_key=iIulBulltgU6a56xZRHN4H3l9WmuAYTsLGpBGhQ2"
    },
    "id": "3561032",
    "neo_reference_id": "3561032",
    "name": "(2011 GG3)",
    "designation": "2011 GG3",
    "nasa_jpl_url": "http://ssd.jpl.nasa.gov/sbdb.cgi?sstr=3561032",
    "absolute_magnitude_h": 21.2,
    "estimated_diameter": {
        "kilometers": {
            "estimated_diameter_min": 0.1529519353,
            "estimated_diameter_max": 0.3420109247
        },
        "meters": {
            "estimated_diameter_min": 152.9519353442,
            "estimated_diameter_max": 342.0109247198
        },
        "miles": {
            "estimated_diameter_min": 0.095039897,
            "estimated_diameter_max": 0.2125156703
        },
        "feet": {
            "estimated_diameter_min": 501.8108275547,
            "estimated_diameter_max": 1122.0831222578
        }
    },
    "is_potentially_hazardous_asteroid": false,
    "close_approach_data": [
        {
            "close_approach_date": "2008-10-15",
            "close_approach_date_full": "2008-Oct-15 23:14",
            "epoch_date_close_approach": 1224112440000,
            "relative_velocity": {
                "kilometers_per_second": "15.4231321609",
                "kilometers_per_hour": "55523.2757792911",
                "miles_per_hour": "34500.004330749"
            },
            "miss_distance": {
                "astronomical": "0.4572716821",
                "lunar": "177.8786843369",
                "kilometers": "68406869.653477127",
                "miles": "42506057.7705812726"
            },
            "orbiting_body": "Earth"
        }
    ],
    "orbital_data": {
        "orbit_id": "7",
        "orbit_determination_date": "2017-04-06 08:53:50",
        "first_observation_date": "2011-04-02",
        "last_observation_date": "2011-04-12",
        "data_arc_in_days": 10,
        "observations_used": 14,
        "orbit_uncertainty": "8",
        "minimum_orbit_intersection": ".38331",
        "jupiter_tisserand_invariant": "4.406",
        "epoch_osculation": "2455654.5",
        "eccentricity": ".1319071707938114",
        "semi_major_axis": "1.493006253161976",
        "inclination": "29.87691995434616",
        "ascending_node_longitude": "7.128324772022303",
        "orbital_period": "666.3323015242801",
        "perihelion_distance": "1.296068022329911",
        "perihelion_argument": "67.80945530899631",
        "aphelion_distance": "1.689944483994041",
        "perihelion_time": "2455480.157328125256",
        "mean_anomaly": "94.19228473740868",
        "mean_motion": ".5402709716705549",
        "equinox": "J2000",
        "orbit_class": {
            "orbit_class_type": "AMO",
            "orbit_class_description": "Near-Earth asteroid orbits similar to that of 1221 Amor",
            "orbit_class_range": "1.017 AU < q (perihelion) < 1.3 AU"
        }
    },
    "is_sentry_object": false
}